GLOBALSTAR M063         
1 26081U 00008A   24256.57490319 -.00000100  00000+0 -25482-3 0  9998
2 26081  51.9947 122.6972 0004922 130.3522 263.0385 11.86157174124630
GLOBALSTAR M062         
1 26082U 00008B   24256.58611291 -.00000049  00000+0  34883-3 0  9990
2 26082  51.9837 192.1111 0006553 241.3851 289.6216 12.43445606462081
GLOBALSTAR M060         
1 26083U 00008C   24256.38771501 -.00000027  00000+0  63668-3 0  9999
2 26083  52.0004 113.4015 0002544 289.1125 242.7162 12.17641185118527
GLOBALSTAR M064         
1 26084U 00008D   24256.36162353 -.00000048  00000+0  50277-3 0  9992
2 26084  52.0006 225.3627 0001154 252.0728 107.9979 11.88522737134069
GLOBALSTAR M065         
1 31571U 07020A   24256.53558866 -.00000003  00000+0  56287-3 0  9995
2 31571  51.9922 351.3333 0010333  54.6152 318.6527 12.61975221798351
GLOBALSTAR M069         
1 31573U 07020C   24256.54925861 -.00000019  00000+0  49052-3 0  9990
2 31573  51.9958 307.1447 0000414 191.8878 275.7942 12.58764626799485
GLOBALSTAR M072         
1 31574U 07020D   24256.59955597 -.00000056  00000+0  26433-3 0  9994
2 31574  52.0100  42.8720 0001143 101.6007 338.0415 12.62263697797761
GLOBALSTAR M071         
1 31576U 07020F   24256.56669316 -.00000023  00000+0  45219-3 0  9991
2 31576  52.0080 312.1905 0000833 215.4547 297.9557 12.62288354460670
